{
"type": "FeatureCollection",
"name": "ch73_surabaya_parks",
"crs": { "type": "name", "properties": { "name": "urn:ogc:def:crs:OGC:1.3:CRS84" } },
"features": [
{ "type": "Feature", "properties": { "name": "Komplek Tugu Pahlawan", "ha": 2.5531933510598144 }, "geometry": { "type": "Polygon", "coordinates": [ [ [ 112.7376182, -7.2451686 ], [ 112.7375153, -7.2452197 ], [ 112.7374294, -7.2453048 ], [ 112.7373779, -7.2453985 ], [ 112.7373436, -7.2455347 ], [ 112.7373007, -7.2457902 ], [ 112.7370924, -7.2467062 ], [ 112.737088, -7.2467899 ], [ 112.7371315, -7.2468609 ], [ 112.7371997, -7.246874 ], [ 112.7384123, -7.2470283 ], [ 112.7384941, -7.2470278 ], [ 112.7385276, -7.246971 ], [ 112.73854, -7.2468994 ], [ 112.7385245, -7.2467939 ], [ 112.7383478, -7.2453134 ], [ 112.7383049, -7.2452623 ], [ 112.7382362, -7.2452282 ], [ 112.7376182, -7.2451686 ] ] ] } },
{ "type": "Feature", "properties": { "name": "Taman Flora", "ha": 3.3894276601586819 }, "geometry": { "type": "Polygon", "coordinates": [ [ [ 112.7612767, -7.2971777 ], [ 112.7612981, -7.2972844 ], [ 112.761341, -7.2973589 ], [ 112.7614269, -7.2973962 ], [ 112.7617466, -7.2974152 ], [ 112.7618641, -7.2974148 ], [ 112.7619472, -7.2973749 ], [ 112.7619714, -7.2973055 ], [ 112.7622396, -7.294309 ], [ 112.7622449, -7.2941637 ], [ 112.7621963, -7.2940304 ], [ 112.7621396, -7.2939348 ], [ 112.7620318, -7.2938473 ], [ 112.7619241, -7.2938192 ], [ 112.7614886, -7.2938165 ], [ 112.7614311, -7.2938295 ], [ 112.7613992, -7.2938602 ], [ 112.7612767, -7.2971777 ] ] ] } },
{ "type": "Feature", "properties": { "name": "Taman Pelangi", "ha": 0.63325894937286431 }, "geometry": { "type": "Polygon", "coordinates": [ [ [ 112.7315015, -7.3273915 ], [ 112.7314988, -7.3273522 ], [ 112.731476, -7.327321 ], [ 112.7314451, -7.327309 ], [ 112.7309415, -7.3272817 ], [ 112.7309067, -7.3272724 ], [ 112.7308785, -7.3272498 ], [ 112.7308497, -7.3271593 ], [ 112.7309033, -7.3276488 ], [ 112.7309456, -7.3280333 ], [ 112.7309898, -7.3282394 ], [ 112.7310153, -7.3283013 ], [ 112.7310535, -7.3283505 ], [ 112.731126, -7.3283798 ], [ 112.7311977, -7.3283851 ], [ 112.7312587, -7.3283718 ], [ 112.7313036, -7.3283352 ], [ 112.7313238, -7.328282 ], [ 112.7315015, -7.3273915 ] ] ] } },
{ "type": "Feature", "properties": { "name": "", "ha": 1.2863886083419784 }, "geometry": { "type": "Polygon", "coordinates": [ [ [ 112.7274077, -7.2270298 ], [ 112.7268462, -7.22822 ], [ 112.7275721, -7.228557 ], [ 112.7281335, -7.2273668 ], [ 112.7274077, -7.2270298 ] ] ] } },
{ "type": "Feature", "properties": { "name": "", "ha": 0.55190261845674926 }, "geometry": { "type": "Polygon", "coordinates": [ [ [ 112.7144357, -7.3190868 ], [ 112.7151309, -7.3194653 ], [ 112.7149091, -7.3199567 ], [ 112.7141788, -7.319625 ], [ 112.7144357, -7.3190868 ] ] ] } },
{ "type": "Feature", "properties": { "name": "Lapangan Rungkut", "ha": 0.72205121132775441 }, "geometry": { "type": "Polygon", "coordinates": [ [ [ 112.7737515, -7.3271049 ], [ 112.7745409, -7.3271136 ], [ 112.7745325, -7.3278624 ], [ 112.773743, -7.3278537 ], [ 112.7737515, -7.3271049 ] ] ] } },
{ "type": "Feature", "properties": { "name": "Taman Apsari", "ha": 0.6068124157607131 }, "geometry": { "type": "Polygon", "coordinates": [ [ [ 112.7426541, -7.2634225 ], [ 112.7431912, -7.263634 ], [ 112.7432133, -7.2636517 ], [ 112.743222, -7.2636706 ], [ 112.7432284, -7.2637025 ], [ 112.7432247, -7.2637405 ], [ 112.7431952, -7.2638362 ], [ 112.7430658, -7.2640544 ], [ 112.7429639, -7.2642001 ], [ 112.7429089, -7.2642314 ], [ 112.7428707, -7.2642433 ], [ 112.7428244, -7.264242 ], [ 112.7425508, -7.2641176 ], [ 112.7424033, -7.2640072 ], [ 112.7423671, -7.263934 ], [ 112.7423564, -7.2638489 ], [ 112.7423711, -7.2637611 ], [ 112.7424127, -7.263656 ], [ 112.7425455, -7.2633833 ], [ 112.7426541, -7.2634225 ] ] ] } },
{ "type": "Feature", "properties": { "name": "Taman Surya", "ha": 1.2364970443795118 }, "geometry": { "type": "Polygon", "coordinates": [ [ [ 112.7461612, -7.2603787 ], [ 112.7464904, -7.2604719 ], [ 112.746509, -7.2604066 ], [ 112.7469741, -7.2605366 ], [ 112.7469539, -7.2606078 ], [ 112.7473027, -7.2606955 ], [ 112.7475422, -7.259845 ], [ 112.7473323, -7.2597917 ], [ 112.746552, -7.2595736 ], [ 112.7463996, -7.2595331 ], [ 112.7461612, -7.2603787 ] ] ] } },
{ "type": "Feature", "properties": { "name": "Taman Bungkul", "ha": 1.5560079280205275 }, "geometry": { "type": "Polygon", "coordinates": [ [ [ 112.7392077, -7.2918729 ], [ 112.7391962, -7.2908828 ], [ 112.7400925, -7.2908936 ], [ 112.7404331, -7.291032 ], [ 112.7406532, -7.2914175 ], [ 112.7405505, -7.2916382 ], [ 112.7402288, -7.2918992 ], [ 112.7392077, -7.2918729 ] ] ] } },
{ "type": "Feature", "properties": { "name": "Taman Alumni ITS", "ha": 0.6020035616413425 }, "geometry": { "type": "Polygon", "coordinates": [ [ [ 112.7925741, -7.2814196 ], [ 112.7926592, -7.2810365 ], [ 112.7922906, -7.2806278 ], [ 112.7917893, -7.2801395 ], [ 112.7913383, -7.2801236 ], [ 112.7918236, -7.2806232 ], [ 112.79227, -7.2811001 ], [ 112.7925585, -7.2813885 ], [ 112.7925741, -7.2814196 ] ] ] } },
{ "type": "Feature", "properties": { "name": "Mangrove Information Center", "ha": 1.6599396652923257 }, "geometry": { "type": "Polygon", "coordinates": [ [ [ 112.8211773, -7.307745 ], [ 112.8214466, -7.3091644 ], [ 112.8218006, -7.3091892 ], [ 112.8220948, -7.309115 ], [ 112.8222593, -7.3087109 ], [ 112.8222918, -7.3084623 ], [ 112.8220998, -7.3075719 ], [ 112.8211773, -7.307745 ] ] ] } },
{ "type": "Feature", "properties": { "name": "", "ha": 0.67161073236223279 }, "geometry": { "type": "Polygon", "coordinates": [ [ [ 112.7158567, -7.3353609 ], [ 112.7157992, -7.3354844 ], [ 112.7157313, -7.3356305 ], [ 112.7159178, -7.3357158 ], [ 112.7158463, -7.3358695 ], [ 112.7160065, -7.3359428 ], [ 112.7162545, -7.3360563 ], [ 112.7161343, -7.3363147 ], [ 112.7161651, -7.3363288 ], [ 112.7161216, -7.3364223 ], [ 112.7162234, -7.3364689 ], [ 112.7161606, -7.3366038 ], [ 112.7162892, -7.3366627 ], [ 112.7163797, -7.3367042 ], [ 112.7165502, -7.3355346 ], [ 112.7165455, -7.3355068 ], [ 112.7165291, -7.3354767 ], [ 112.7158567, -7.3353609 ] ] ] } },
{ "type": "Feature", "properties": { "name": "Taman Ade Irma Suryani Nasution", "ha": 1.3108641530709588 }, "geometry": { "type": "Polygon", "coordinates": [ [ [ 112.743738, -7.2679225 ], [ 112.7437374, -7.2679807 ], [ 112.7437525, -7.2680089 ], [ 112.7437998, -7.2680337 ], [ 112.7446861, -7.2683735 ], [ 112.7447162, -7.2683652 ], [ 112.7447446, -7.2683411 ], [ 112.7447741, -7.2682987 ], [ 112.7450719, -7.2675287 ], [ 112.7450758, -7.2674935 ], [ 112.7450669, -7.2674714 ], [ 112.7450394, -7.2674532 ], [ 112.744126, -7.2671272 ], [ 112.7440798, -7.2671215 ], [ 112.744047, -7.2671341 ], [ 112.7440215, -7.2671584 ], [ 112.743738, -7.2679225 ] ] ] } },
{ "type": "Feature", "properties": { "name": "Kolam Bebek", "ha": 0.85964909998193562 }, "geometry": { "type": "Polygon", "coordinates": [ [ [ 112.6681372, -7.291946 ], [ 112.6681641, -7.2918129 ], [ 112.6682499, -7.2917251 ], [ 112.6683545, -7.2916666 ], [ 112.6684913, -7.2916746 ], [ 112.6686495, -7.2917012 ], [ 112.6693255, -7.2918209 ], [ 112.6693791, -7.2918449 ], [ 112.6694086, -7.2918954 ], [ 112.6694193, -7.2919566 ], [ 112.6693791, -7.2920258 ], [ 112.6693415, -7.2920684 ], [ 112.669312, -7.2921269 ], [ 112.6693255, -7.2921907 ], [ 112.6693496, -7.2922572 ], [ 112.669363, -7.2923317 ], [ 112.6692986, -7.2923823 ], [ 112.6692155, -7.2924009 ], [ 112.669025, -7.292385 ], [ 112.6682713, -7.2922386 ], [ 112.6682016, -7.2921615 ], [ 112.6681533, -7.2920896 ], [ 112.6681319, -7.2920205 ], [ 112.6681372, -7.291946 ] ] ] } },
{ "type": "Feature", "properties": { "name": "Taman Remaja Surabaya", "ha": 5.1857208044676248 }, "geometry": { "type": "Polygon", "coordinates": [ [ [ 112.7515146, -7.2514701 ], [ 112.75141, -7.2516032 ], [ 112.7513738, -7.2521852 ], [ 112.7513657, -7.2528118 ], [ 112.751359, -7.2531324 ], [ 112.7508011, -7.2532242 ], [ 112.7500675, -7.2534384 ], [ 112.7500944, -7.2537058 ], [ 112.750156, -7.25394 ], [ 112.7502633, -7.2543564 ], [ 112.7505262, -7.2543178 ], [ 112.7507314, -7.2542726 ], [ 112.7507435, -7.2542087 ], [ 112.7509768, -7.2541316 ], [ 112.7511874, -7.254085 ], [ 112.7516715, -7.2539972 ], [ 112.7519022, -7.2539426 ], [ 112.7519236, -7.2539852 ], [ 112.7523769, -7.2538894 ], [ 112.7523823, -7.2534757 ], [ 112.7524078, -7.2534557 ], [ 112.7524104, -7.2532562 ], [ 112.7524172, -7.2530061 ], [ 112.7526827, -7.2527719 ], [ 112.7527095, -7.2527426 ], [ 112.7527162, -7.2524353 ], [ 112.7527444, -7.25183 ], [ 112.7527873, -7.2516744 ], [ 112.75279, -7.2514136 ], [ 112.7522696, -7.2514282 ], [ 112.7515146, -7.2514701 ] ] ] } },
{ "type": "Feature", "properties": { "name": "", "ha": 0.6252366589224273 }, "geometry": { "type": "Polygon", "coordinates": [ [ [ 112.7788272, -7.2905251 ], [ 112.7794333, -7.2904977 ], [ 112.7794719, -7.2913406 ], [ 112.7788659, -7.291368 ], [ 112.7788272, -7.2905251 ] ] ] } },
{ "type": "Feature", "properties": { "name": "", "ha": 0.99437831654021824 }, "geometry": { "type": "Polygon", "coordinates": [ [ [ 112.8118017, -7.2915255 ], [ 112.8118567, -7.2908502 ], [ 112.8130025, -7.2909152 ], [ 112.8128905, -7.2916807 ], [ 112.8118017, -7.2915255 ] ] ] } },
{ "type": "Feature", "properties": { "name": "Taman Jayengrono", "ha": 0.52236151842589129 }, "geometry": { "type": "Polygon", "coordinates": [ [ [ 112.7376336, -7.2356975 ], [ 112.738221, -7.2359004 ], [ 112.7379931, -7.2365497 ], [ 112.7374057, -7.2363468 ], [ 112.7376336, -7.2356975 ] ] ] } },
{ "type": "Feature", "properties": { "name": "", "ha": 1.3502635887449119 }, "geometry": { "type": "Polygon", "coordinates": [ [ [ 112.7317494, -7.3342065 ], [ 112.7306888, -7.3339284 ], [ 112.7308309, -7.3330905 ], [ 112.7311622, -7.3331317 ], [ 112.7311863, -7.3330133 ], [ 112.7313875, -7.3330399 ], [ 112.7314156, -7.3327247 ], [ 112.7315631, -7.3327446 ], [ 112.7316114, -7.3325145 ], [ 112.7317482, -7.3325824 ], [ 112.7315994, -7.3331397 ], [ 112.731826, -7.3332088 ], [ 112.7316611, -7.3337928 ], [ 112.7318341, -7.3338433 ], [ 112.7317494, -7.3342065 ] ] ] } },
{ "type": "Feature", "properties": { "name": "", "ha": 0.50470062092750145 }, "geometry": { "type": "Polygon", "coordinates": [ [ [ 112.7305438, -7.2970868 ], [ 112.7309078, -7.2973762 ], [ 112.7314664, -7.296685 ], [ 112.7311025, -7.2963956 ], [ 112.7307997, -7.2967702 ], [ 112.7305438, -7.2970868 ] ] ] } },
{ "type": "Feature", "properties": { "name": "Taman Harmoni", "ha": 5.5790374734905432 }, "geometry": { "type": "Polygon", "coordinates": [ [ [ 112.8020865, -7.294326 ], [ 112.8019148, -7.2953636 ], [ 112.8023869, -7.2954434 ], [ 112.8023601, -7.295736 ], [ 112.8050637, -7.2962947 ], [ 112.8052837, -7.2947304 ], [ 112.8020865, -7.294326 ] ] ] } },
{ "type": "Feature", "properties": { "name": "Taman PUPR", "ha": 12.605148061386169 }, "geometry": { "type": "Polygon", "coordinates": [ [ [ 112.8003859, -7.2989871 ], [ 112.8005683, -7.2978644 ], [ 112.800799, -7.2977101 ], [ 112.8009599, -7.2970663 ], [ 112.8012979, -7.2966991 ], [ 112.8023654, -7.296896 ], [ 112.8047901, -7.297609 ], [ 112.8044468, -7.2998438 ], [ 112.802918, -7.2998332 ], [ 112.8023547, -7.2997055 ], [ 112.801947, -7.2995139 ], [ 112.8008473, -7.2994022 ], [ 112.8008902, -7.2990457 ], [ 112.8003859, -7.2989871 ] ] ] } },
{ "type": "Feature", "properties": { "name": "Taman Bulak", "ha": 0.88591508807352148 }, "geometry": { "type": "Polygon", "coordinates": [ [ [ 112.7877071, -7.2259652 ], [ 112.7875583, -7.2262678 ], [ 112.7874698, -7.2263756 ], [ 112.7870299, -7.2266723 ], [ 112.7868247, -7.2268413 ], [ 112.7863942, -7.2266603 ], [ 112.7864076, -7.2265758 ], [ 112.7865927, -7.2263104 ], [ 112.7865699, -7.2262199 ], [ 112.7873377, -7.2257403 ], [ 112.7874731, -7.225904 ], [ 112.7877071, -7.2259652 ] ] ] } },
{ "type": "Feature", "properties": { "name": "Taman Suroboyo", "ha": 1.25312989853465 }, "geometry": { "type": "Polygon", "coordinates": [ [ [ 112.7875355, -7.2248522 ], [ 112.7884434, -7.224819 ], [ 112.7886379, -7.2259805 ], [ 112.7881667, -7.2258389 ], [ 112.7878995, -7.2257585 ], [ 112.7876508, -7.2256838 ], [ 112.7875502, -7.2256212 ], [ 112.7874362, -7.2254589 ], [ 112.7873826, -7.2253325 ], [ 112.7873826, -7.2252394 ], [ 112.7874832, -7.2250638 ], [ 112.7875315, -7.2249627 ], [ 112.7875355, -7.2248522 ] ] ] } },
{ "type": "Feature", "properties": { "name": "Hutan Kota Balas Klumprik", "ha": 4.6616750045157493 }, "geometry": { "type": "Polygon", "coordinates": [ [ [ 112.6907855, -7.3299194 ], [ 112.6910967, -7.3279508 ], [ 112.6921669, -7.3281743 ], [ 112.6916465, -7.331622 ], [ 112.6910377, -7.3314491 ], [ 112.6909626, -7.3313932 ], [ 112.6907212, -7.3313613 ], [ 112.6906058, -7.3319465 ], [ 112.6904905, -7.3319146 ], [ 112.6906863, -7.3309596 ], [ 112.6907372, -7.3303663 ], [ 112.6907855, -7.3299194 ] ] ] } },
{ "type": "Feature", "properties": { "name": "Taman Jangkar", "ha": 1.0623286268684313 }, "geometry": { "type": "Polygon", "coordinates": [ [ [ 112.7132598, -7.313686 ], [ 112.7131149, -7.3140877 ], [ 112.7132249, -7.3141143 ], [ 112.7150722, -7.3149835 ], [ 112.7152369, -7.3146213 ], [ 112.7132598, -7.313686 ] ] ] } },
{ "type": "Feature", "properties": { "name": "Taman Cahaya", "ha": 1.7698880168346347 }, "geometry": { "type": "Polygon", "coordinates": [ [ [ 112.6243901, -7.2415758 ], [ 112.6241755, -7.2415704 ], [ 112.6245135, -7.2405061 ], [ 112.6259297, -7.2410037 ], [ 112.6255649, -7.2419057 ], [ 112.6252672, -7.241762 ], [ 112.6246476, -7.2416103 ], [ 112.6243901, -7.2415758 ] ] ] } },
{ "type": "Feature", "properties": { "name": "", "ha": 1.3320321701917595 }, "geometry": { "type": "Polygon", "coordinates": [ [ [ 112.8117786, -7.2637092 ], [ 112.8116713, -7.2634378 ], [ 112.8104402, -7.2638103 ], [ 112.8103302, -7.2638329 ], [ 112.8102122, -7.2638276 ], [ 112.8100795, -7.2638462 ], [ 112.8099668, -7.2638675 ], [ 112.8098367, -7.2639207 ], [ 112.8097549, -7.2639686 ], [ 112.8096919, -7.2640192 ], [ 112.8085546, -7.2643624 ], [ 112.8084916, -7.264373 ], [ 112.8084406, -7.2643637 ], [ 112.8083803, -7.2643291 ], [ 112.8083615, -7.2643451 ], [ 112.8083548, -7.2643903 ], [ 112.8083146, -7.2644302 ], [ 112.8084487, -7.2648613 ], [ 112.8085104, -7.2648387 ], [ 112.8085023, -7.2647894 ], [ 112.8085077, -7.2647336 ], [ 112.8085265, -7.264687 ], [ 112.80856, -7.2646537 ], [ 112.8086123, -7.2646325 ], [ 112.8097281, -7.2643105 ], [ 112.8097871, -7.2643079 ], [ 112.8098997, -7.2643092 ], [ 112.8099856, -7.2643025 ], [ 112.8100634, -7.2642906 ], [ 112.810168, -7.2642573 ], [ 112.8102793, -7.2642067 ], [ 112.8103584, -7.2641495 ], [ 112.810412, -7.2641163 ], [ 112.8117786, -7.2637092 ] ] ] } },
{ "type": "Feature", "properties": { "name": "Taman Ekspresi", "ha": 0.69073382451110588 }, "geometry": { "type": "Polygon", "coordinates": [ [ [ 112.7428859, -7.2560214 ], [ 112.7429518, -7.2560876 ], [ 112.7433944, -7.2563909 ], [ 112.7435929, -7.2567501 ], [ 112.7434131, -7.2568725 ], [ 112.7435955, -7.2571599 ], [ 112.7436787, -7.2573807 ], [ 112.7437028, -7.2575297 ], [ 112.7436894, -7.2576787 ], [ 112.7436063, -7.2579554 ], [ 112.7435204, -7.258139 ], [ 112.7436294, -7.2582474 ], [ 112.743786, -7.2579085 ], [ 112.7438942, -7.2575293 ], [ 112.7439224, -7.2572951 ], [ 112.7439035, -7.257155 ], [ 112.7439005, -7.2570798 ], [ 112.7438745, -7.2569088 ], [ 112.7437623, -7.2565992 ], [ 112.7436734, -7.2564245 ], [ 112.7436369, -7.2563528 ], [ 112.7434558, -7.2561843 ], [ 112.7432616, -7.2560597 ], [ 112.7432116, -7.2560335 ], [ 112.7431633, -7.2560265 ], [ 112.7428859, -7.2560214 ] ] ] } },
{ "type": "Feature", "properties": { "name": "Taman Prestasi", "ha": 1.3175287538887321 }, "geometry": { "type": "Polygon", "coordinates": [ [ [ 112.7430423, -7.2597035 ], [ 112.7431315, -7.2597541 ], [ 112.7429008, -7.260084 ], [ 112.7427775, -7.2602836 ], [ 112.7426836, -7.2605416 ], [ 112.7427077, -7.2606321 ], [ 112.7427775, -7.260672 ], [ 112.7430859, -7.2613478 ], [ 112.743279, -7.2617336 ], [ 112.743625, -7.2619811 ], [ 112.7438638, -7.2621567 ], [ 112.7440703, -7.2622658 ], [ 112.7442929, -7.2623722 ], [ 112.7444968, -7.2624121 ], [ 112.7447221, -7.2624573 ], [ 112.7451646, -7.2624547 ], [ 112.7451704, -7.2624989 ], [ 112.7448289, -7.2625505 ], [ 112.7445168, -7.2625199 ], [ 112.7442005, -7.2624844 ], [ 112.7437811, -7.2623638 ], [ 112.7436009, -7.2623101 ], [ 112.7433116, -7.2621621 ], [ 112.7430443, -7.2619735 ], [ 112.7428612, -7.261809 ], [ 112.7427201, -7.2616058 ], [ 112.7425845, -7.2612593 ], [ 112.7425316, -7.2610151 ], [ 112.7425169, -7.2607103 ], [ 112.7425527, -7.2604426 ], [ 112.742575, -7.2603408 ], [ 112.7426203, -7.2602107 ], [ 112.7427413, -7.2600087 ], [ 112.7429355, -7.2597945 ], [ 112.7430423, -7.2597035 ] ] ] } },
{ "type": "Feature", "properties": { "name": "", "ha": 1.1674669686701593 }, "geometry": { "type": "Polygon", "coordinates": [ [ [ 112.6284187, -7.2391008 ], [ 112.6291194, -7.2393154 ], [ 112.628836, -7.2400037 ], [ 112.6288167, -7.2400495 ], [ 112.6286456, -7.2406905 ], [ 112.6280355, -7.2404472 ], [ 112.6284187, -7.2391008 ] ] ] } },
{ "type": "Feature", "properties": { "name": "", "ha": 0.56297574862195598 }, "geometry": { "type": "Polygon", "coordinates": [ [ [ 112.7056479, -7.2877417 ], [ 112.7057034, -7.2875095 ], [ 112.7057249, -7.2873689 ], [ 112.7057095, -7.287294 ], [ 112.7056633, -7.2872283 ], [ 112.7056032, -7.2871764 ], [ 112.7055354, -7.2871473 ], [ 112.7049978, -7.287158 ], [ 112.7048438, -7.2871871 ], [ 112.704739, -7.287236 ], [ 112.704682, -7.287294 ], [ 112.7043092, -7.2873341 ], [ 112.7056479, -7.2877417 ] ] ] } },
{ "type": "Feature", "properties": { "name": "Taman Pandugo", "ha": 0.59927844347885517 }, "geometry": { "type": "Polygon", "coordinates": [ [ [ 112.7928388, -7.3199682 ], [ 112.7942188, -7.3196304 ], [ 112.7951865, -7.319399 ], [ 112.7952408, -7.3196195 ], [ 112.7928844, -7.3201386 ], [ 112.7928388, -7.3199682 ] ] ] } },
{ "type": "Feature", "properties": { "name": "Taman Incenerator", "ha": 1.5085652062775718 }, "geometry": { "type": "Polygon", "coordinates": [ [ [ 112.8052882, -7.2956317 ], [ 112.8071478, -7.2958903 ], [ 112.8070397, -7.2965076 ], [ 112.8068688, -7.2964677 ], [ 112.8066543, -7.2965023 ], [ 112.8052, -7.2962932 ], [ 112.8052882, -7.2956317 ] ] ] } },
{ "type": "Feature", "properties": { "name": "", "ha": 0.57609561965362377 }, "geometry": { "type": "Polygon", "coordinates": [ [ [ 112.6215617, -7.2580486 ], [ 112.621775, -7.2575843 ], [ 112.6226266, -7.2580153 ], [ 112.622412, -7.2584503 ], [ 112.6215617, -7.2580486 ] ] ] } },
{ "type": "Feature", "properties": { "name": "", "ha": 0.66457225821586841 }, "geometry": { "type": "Polygon", "coordinates": [ [ [ 112.6245095, -7.2587975 ], [ 112.6243311, -7.259061 ], [ 112.6242453, -7.2593669 ], [ 112.6250043, -7.2597155 ], [ 112.625282, -7.2591554 ], [ 112.6245095, -7.2587975 ] ] ] } },
{ "type": "Feature", "properties": { "name": "", "ha": 0.71453846586495551 }, "geometry": { "type": "Polygon", "coordinates": [ [ [ 112.6222068, -7.2550034 ], [ 112.6219775, -7.2555062 ], [ 112.6229122, -7.2559519 ], [ 112.6231617, -7.2554397 ], [ 112.6222068, -7.2550034 ] ] ] } },
{ "type": "Feature", "properties": { "name": "", "ha": 2.2216322365992869 }, "geometry": { "type": "Polygon", "coordinates": [ [ [ 112.6198974, -7.2517918 ], [ 112.6200342, -7.2509577 ], [ 112.6212908, -7.2511732 ], [ 112.6223744, -7.2516841 ], [ 112.6221465, -7.2521697 ], [ 112.6198974, -7.2517918 ] ] ] } },
{ "type": "Feature", "properties": { "name": "", "ha": 2.7920969426512841 }, "geometry": { "type": "Polygon", "coordinates": [ [ [ 112.6675576, -7.2746618 ], [ 112.6680028, -7.2744542 ], [ 112.6689175, -7.2738662 ], [ 112.6691321, -7.2739381 ], [ 112.6692474, -7.2742095 ], [ 112.6691911, -7.2743585 ], [ 112.6690569, -7.2744409 ], [ 112.669124, -7.2745447 ], [ 112.6691562, -7.2746857 ], [ 112.6691428, -7.2748454 ], [ 112.6690811, -7.2749651 ], [ 112.6690462, -7.275138 ], [ 112.6689765, -7.2752524 ], [ 112.6690006, -7.2752977 ], [ 112.6693413, -7.2753615 ], [ 112.6695237, -7.275452 ], [ 112.66958, -7.2755211 ], [ 112.6696303, -7.2756225 ], [ 112.6679492, -7.2758245 ], [ 112.6677507, -7.2751566 ], [ 112.6675576, -7.2746618 ] ] ] } },
{ "type": "Feature", "properties": { "name": "Bozem Mini Nirwana", "ha": 1.3103422093606056 }, "geometry": { "type": "Polygon", "coordinates": [ [ [ 112.7926531, -7.3195099 ], [ 112.7926575, -7.31953 ], [ 112.7926859, -7.3196601 ], [ 112.7927184, -7.3198087 ], [ 112.7927563, -7.319982 ], [ 112.7931329, -7.3198857 ], [ 112.7952469, -7.3193778 ], [ 112.7951628, -7.3190274 ], [ 112.7945452, -7.3191462 ], [ 112.7945191, -7.3191512 ], [ 112.7926531, -7.3195099 ] ] ] } },
{ "type": "Feature", "properties": { "name": "Twin Lagoon", "ha": 1.2384251756409921 }, "geometry": { "type": "Polygon", "coordinates": [ [ [ 112.8069534, -7.2721628 ], [ 112.8058872, -7.2724588 ], [ 112.8058523, -7.2724907 ], [ 112.8058416, -7.2725439 ], [ 112.8058818, -7.2725918 ], [ 112.8060427, -7.2726902 ], [ 112.8062278, -7.2728738 ], [ 112.8063565, -7.2731292 ], [ 112.8064424, -7.2732277 ], [ 112.8065497, -7.2732703 ], [ 112.8067052, -7.2733048 ], [ 112.8072969, -7.2734038 ], [ 112.8069534, -7.2721628 ] ] ] } },
{ "type": "Feature", "properties": { "name": "Taman Menggapai Cakrawala", "ha": 0.50802853936781744 }, "geometry": { "type": "Polygon", "coordinates": [ [ [ 112.8078795, -7.2777792 ], [ 112.8078741, -7.277726 ], [ 112.8078821, -7.2776807 ], [ 112.8079036, -7.2776515 ], [ 112.8079438, -7.2776302 ], [ 112.8083596, -7.2774573 ], [ 112.8084052, -7.2774573 ], [ 112.8084454, -7.2774679 ], [ 112.808499, -7.2774865 ], [ 112.8085366, -7.2775158 ], [ 112.8085634, -7.2775504 ], [ 112.8085876, -7.2775796 ], [ 112.8086251, -7.2776462 ], [ 112.8086627, -7.2777127 ], [ 112.8086734, -7.2777925 ], [ 112.8086707, -7.2778723 ], [ 112.8086653, -7.2779149 ], [ 112.8086224, -7.2780027 ], [ 112.8082362, -7.2781543 ], [ 112.8081718, -7.2781676 ], [ 112.8080967, -7.2781623 ], [ 112.808035, -7.2781277 ], [ 112.8079894, -7.2780878 ], [ 112.8079599, -7.2780293 ], [ 112.8078795, -7.2777792 ] ] ] } },
{ "type": "Feature", "properties": { "name": "park mayjen sungkono", "ha": 2.2564977220159563 }, "geometry": { "type": "Polygon", "coordinates": [ [ [ 112.7192139, -7.290191 ], [ 112.7205007, -7.2903262 ], [ 112.7203399, -7.2916549 ], [ 112.719007, -7.2915726 ], [ 112.7191281, -7.2902561 ], [ 112.7192139, -7.290191 ] ] ] } },
{ "type": "Feature", "properties": { "name": "UHT GZ", "ha": 16.884120782964207 }, "geometry": { "type": "Polygon", "coordinates": [ [ [ 112.7922361, -7.2909302 ], [ 112.7950604, -7.2906493 ], [ 112.7950038, -7.2909442 ], [ 112.7955346, -7.2910846 ], [ 112.7951099, -7.2933806 ], [ 112.7943101, -7.2932963 ], [ 112.7938995, -7.294841 ], [ 112.7936447, -7.2948199 ], [ 112.793397, -7.2959292 ], [ 112.7915513, -7.2956988 ], [ 112.7917829, -7.2948278 ], [ 112.7915353, -7.2947988 ], [ 112.7922361, -7.2909302 ] ] ] } },
{ "type": "Feature", "properties": { "name": "Pandugo 2 Park", "ha": 0.68617993867819971 }, "geometry": { "type": "Polygon", "coordinates": [ [ [ 112.7894912, -7.3172658 ], [ 112.7896941, -7.3172361 ], [ 112.7897052, -7.3172344 ], [ 112.7900323, -7.3171911 ], [ 112.7902069, -7.3181289 ], [ 112.7895909, -7.3182274 ], [ 112.7894912, -7.3172658 ] ] ] } },
{ "type": "Feature", "properties": { "name": "", "ha": 0.65855304585343788 }, "geometry": { "type": "Polygon", "coordinates": [ [ [ 112.782783, -7.2649637 ], [ 112.7822064, -7.2648873 ], [ 112.7823762, -7.2640688 ], [ 112.7829402, -7.2638509 ], [ 112.782783, -7.2649637 ] ] ] } },
{ "type": "Feature", "properties": { "name": "", "ha": 0.68648629912843806 }, "geometry": { "type": "Polygon", "coordinates": [ [ [ 112.783289, -7.253057 ], [ 112.7836405, -7.2530658 ], [ 112.7839698, -7.2531793 ], [ 112.7842764, -7.2524492 ], [ 112.7835401, -7.252268 ], [ 112.783289, -7.253057 ] ] ] } },
{ "type": "Feature", "properties": { "name": "Hutan Kota Pakal", "ha": 7.6177834888784917 }, "geometry": { "type": "Polygon", "coordinates": [ [ [ 112.6212304, -7.2368302 ], [ 112.6223924, -7.2333487 ], [ 112.6206873, -7.2326941 ], [ 112.6203077, -7.2338353 ], [ 112.6203836, -7.2340091 ], [ 112.6196829, -7.2359903 ], [ 112.6212304, -7.2368302 ] ] ] } },
{ "type": "Feature", "properties": { "name": "", "ha": 0.64974893647855136 }, "geometry": { "type": "Polygon", "coordinates": [ [ [ 112.6153243, -7.2481187 ], [ 112.6154126, -7.2475852 ], [ 112.6163837, -7.2477435 ], [ 112.6162954, -7.2482769 ], [ 112.6153243, -7.2481187 ] ] ] } },
{ "type": "Feature", "properties": { "name": "", "ha": 0.53598779529663954 }, "geometry": { "type": "Polygon", "coordinates": [ [ [ 112.6173104, -7.2484885 ], [ 112.6174033, -7.2479552 ], [ 112.6182023, -7.248092 ], [ 112.6181094, -7.2486254 ], [ 112.6173104, -7.2484885 ] ] ] } },
{ "type": "Feature", "properties": { "name": "", "ha": 1.3615217372941169 }, "geometry": { "type": "Polygon", "coordinates": [ [ [ 112.6169309, -7.2504681 ], [ 112.6190901, -7.250838 ], [ 112.6190028, -7.2513393 ], [ 112.6168436, -7.2509695 ], [ 112.6169309, -7.2504681 ] ] ] } },
{ "type": "Feature", "properties": { "name": "Hutan Kota Unesa", "ha": 3.8345275888636592 }, "geometry": { "type": "Polygon", "coordinates": [ [ [ 112.6695397, -7.3008282 ], [ 112.6719511, -7.3014135 ], [ 112.6720771, -7.3008388 ], [ 112.6722407, -7.3002881 ], [ 112.6722702, -7.3000167 ], [ 112.6719376, -7.2999795 ], [ 112.671648, -7.299889 ], [ 112.6714548, -7.2997906 ], [ 112.6712966, -7.2996416 ], [ 112.6711169, -7.2994155 ], [ 112.6710552, -7.2992745 ], [ 112.6707199, -7.2992266 ], [ 112.6706207, -7.2995445 ], [ 112.6705794, -7.2997518 ], [ 112.6705952, -7.2998111 ], [ 112.670558, -7.2999812 ], [ 112.6705804, -7.2999904 ], [ 112.670539, -7.3001452 ], [ 112.6704136, -7.3001202 ], [ 112.6703233, -7.3004235 ], [ 112.6696591, -7.3002935 ], [ 112.6695397, -7.3008282 ] ] ] } },
{ "type": "Feature", "properties": { "name": "Taman Hutan Raya jeruk", "ha": 2.6514872359962158 }, "geometry": { "type": "Polygon", "coordinates": [ [ [ 112.6377129, -7.3060171 ], [ 112.6376271, -7.3067833 ], [ 112.6379919, -7.3068418 ], [ 112.6379597, -7.307028 ], [ 112.6380187, -7.3070387 ], [ 112.6376646, -7.3100502 ], [ 112.6381206, -7.3101141 ], [ 112.6385927, -7.3062246 ], [ 112.6377129, -7.3060171 ] ] ] } },
{ "type": "Feature", "properties": { "name": "The Colosseum Club House", "ha": 1.5326889261544328 }, "geometry": { "type": "Polygon", "coordinates": [ [ [ 112.6703672, -7.3145851 ], [ 112.670267, -7.3151485 ], [ 112.6701992, -7.3155334 ], [ 112.6703055, -7.3156188 ], [ 112.6704247, -7.3156824 ], [ 112.6713459, -7.3158576 ], [ 112.6714296, -7.3153582 ], [ 112.6714694, -7.3150746 ], [ 112.6714582, -7.3150252 ], [ 112.6714562, -7.314987 ], [ 112.6714881, -7.3147741 ], [ 112.6713025, -7.3147384 ], [ 112.6703672, -7.3145851 ] ] ] } },
{ "type": "Feature", "properties": { "name": "TWRWLK Jogging Track", "ha": 37.756552706085756 }, "geometry": { "type": "Polygon", "coordinates": [ [ [ 112.6473033, -7.3143167 ], [ 112.6518647, -7.3147392 ], [ 112.6519319, -7.3148349 ], [ 112.6509023, -7.3212661 ], [ 112.6482497, -7.3210885 ], [ 112.6462241, -7.3206825 ], [ 112.6473033, -7.3143167 ] ] ] } },
{ "type": "Feature", "properties": { "name": "", "ha": 0.75340782442301935 }, "geometry": { "type": "Polygon", "coordinates": [ [ [ 112.7871492, -7.2588854 ], [ 112.7881712, -7.2586113 ], [ 112.7882074, -7.2581497 ], [ 112.7872847, -7.2580619 ], [ 112.7871492, -7.2588854 ] ] ] } },
{ "type": "Feature", "properties": { "name": "Taman Lansia Sidosermo", "ha": 1.0329328234459076 }, "geometry": { "type": "Polygon", "coordinates": [ [ [ 112.7557295, -7.311071 ], [ 112.756571, -7.3111557 ], [ 112.7562568, -7.311684 ], [ 112.75601, -7.3116476 ], [ 112.7559937, -7.3118735 ], [ 112.755758, -7.3119622 ], [ 112.7555105, -7.312106 ], [ 112.755201, -7.311821 ], [ 112.7552579, -7.3116194 ], [ 112.7554368, -7.3116114 ], [ 112.7554571, -7.3112202 ], [ 112.7552646, -7.3111171 ], [ 112.755289, -7.3109736 ], [ 112.7557295, -7.311071 ] ] ] } }
]
}
