{"type": "FeatureCollection", "features": [{"type": "Feature", "geometry": {"type": "Polygon", "coordinates": [[[106.86473712372187, -6.1252010714839145], [106.86516627716425, -6.126011807427103], [106.8664537374914, -6.126353169561141], [106.86641082214716, -6.12554243413637]]]}, "properties": {"landcover": 1, "class": "permanent water", "polygon": 0}}, {"type": "Feature", "geometry": {"type": "Polygon", "coordinates": [[[106.87044486450556, -6.125499763816747], [106.87057361053827, -6.126481180305141], [106.87160357879999, -6.126651861249364], [106.87134608673456, -6.125627774765384]]]}, "properties": {"landcover": 1, "class": "permanent water", "polygon": 1}}, {"type": "Feature", "geometry": {"type": "Polygon", "coordinates": [[[106.86726912903192, -6.126609191018429], [106.8675695364416, -6.127249244124378], [106.86829909729364, -6.127334584480515], [106.86808452057245, -6.126523850546317]]]}, "properties": {"landcover": 1, "class": "permanent water", "polygon": 2}}, {"type": "Feature", "geometry": {"type": "Polygon", "coordinates": [[[106.86722621368769, -6.125073060432979], [106.86722621368769, -6.125755785683323], [106.86778411316278, -6.125926466859473], [106.86817035126093, -6.125371752837425]]]}, "properties": {"landcover": 1, "class": "permanent water", "polygon": 3}}, {"type": "Feature", "geometry": {"type": "Polygon", "coordinates": [[[106.84817180084589, -6.13492982150361], [106.84821471619013, -6.135825881658554], [106.84890136169794, -6.136209906978077], [106.84877261566523, -6.135057830189409]]]}, "properties": {"landcover": 1, "class": "permanent water", "polygon": 4}}, {"type": "Feature", "geometry": {"type": "Polygon", "coordinates": [[[106.8490730230749, -6.137575328095211], [106.84877261566523, -6.138684730176465], [106.84920176910761, -6.1389834149574645], [106.84924468445185, -6.138428714516602]]]}, "properties": {"landcover": 1, "class": "permanent water", "polygon": 5}}, {"type": "Feature", "geometry": {"type": "Polygon", "coordinates": [[[106.850532144779, -6.136977956786958], [106.85078963684442, -6.138044690796135], [106.85117587494257, -6.137746005488841], [106.85096129822138, -6.137063295586289]]]}, "properties": {"landcover": 1, "class": "permanent water", "polygon": 6}}, {"type": "Feature", "geometry": {"type": "Polygon", "coordinates": [[[106.84757098602655, -6.132582990150291], [106.8477426474035, -6.133479054249758], [106.84804305481317, -6.133436384564886], [106.84817180084589, -6.132625659903455]]]}, "properties": {"landcover": 1, "class": "permanent water", "polygon": 7}}, {"type": "Feature", "geometry": {"type": "Polygon", "coordinates": [[[106.85580540492522, -6.1243492599240605], [106.85599852397429, -6.124637285135967], [106.85958195521819, -6.122962469692109], [106.8594049294232, -6.122674443576938], [106.85590196444976, -6.1242852543003305]]]}, "properties": {"landcover": 1, "class": "permanent water", "polygon": 8}}, {"type": "Feature", "geometry": {"type": "Polygon", "coordinates": [[[106.86270339133273, -6.149102974663894], [106.86538560034762, -6.14869762441278], [106.86911923529635, -6.148100265584882], [106.87167269827853, -6.147374900391974], [106.8729816162778, -6.147332231820411], [106.87289578558932, -6.146564196947084], [106.8623386109067, -6.148441613568684]]]}, "properties": {"landcover": 1, "class": "permanent water", "polygon": 9}}, {"type": "Feature", "geometry": {"type": "Polygon", "coordinates": [[[106.82792423023882, -6.178141046589541], [106.82753799214068, -6.1791650319024045], [106.82813880696001, -6.180018351482937], [106.8298125053853, -6.179975685536591], [106.82895419850054, -6.179037033846643]]]}, "properties": {"landcover": 2, "class": "vegetation", "polygon": 0}}, {"type": "Feature", "geometry": {"type": "Polygon", "coordinates": [[[106.82324645771685, -6.174514416009629], [106.82324645771685, -6.176861062162697], [106.82419059529009, -6.176519732459529], [106.82444808735552, -6.175581074641148]]]}, "properties": {"landcover": 2, "class": "vegetation", "polygon": 1}}, {"type": "Feature", "geometry": {"type": "Polygon", "coordinates": [[[106.82479141010943, -6.179207697914105], [106.82406184925738, -6.180103683365299], [106.82530639424029, -6.180615674370528], [106.82603595509234, -6.180103683365299], [106.82560680164995, -6.1791650319024045]]]}, "properties": {"landcover": 2, "class": "vegetation", "polygon": 2}}, {"type": "Feature", "geometry": {"type": "Polygon", "coordinates": [[[106.82496307148638, -6.171783760124427], [106.82552097096148, -6.173575754636812], [106.82625053181353, -6.17263709160059]]]}, "properties": {"landcover": 2, "class": "vegetation", "polygon": 3}}, {"type": "Feature", "geometry": {"type": "Polygon", "coordinates": [[[106.88882641724403, -6.191923468492899], [106.88874058655556, -6.193118086686791], [106.88934140137489, -6.193118086686791], [106.88942723206337, -6.191923468492899]]]}, "properties": {"landcover": 2, "class": "vegetation", "polygon": 4}}, {"type": "Feature", "geometry": {"type": "Polygon", "coordinates": [[[106.85423664978798, -6.1881689365790224], [106.85457997254188, -6.189235567677091], [106.85509495667274, -6.188723585018733], [106.85492329529579, -6.188254267146099]]]}, "properties": {"landcover": 2, "class": "vegetation", "polygon": 5}}, {"type": "Feature", "geometry": {"type": "Polygon", "coordinates": [[[106.87556067171445, -6.20151485684576], [106.87671938600889, -6.20070423626522], [106.87744894686094, -6.199680292698257], [106.87590399446836, -6.198912333718524], [106.87495985689512, -6.200320257660579]]]}, "properties": {"landcover": 2, "class": "vegetation", "polygon": 6}}, {"type": "Feature", "geometry": {"type": "Polygon", "coordinates": [[[106.87676230135312, -6.198400360444227], [106.8783072537457, -6.199637628339822], [106.87912264528623, -6.198912333718524], [106.8779639309918, -6.197973715669442]]]}, "properties": {"landcover": 2, "class": "vegetation", "polygon": 7}}, {"type": "Feature", "geometry": {"type": "Polygon", "coordinates": [[[106.87534609499326, -6.202837445643831], [106.8759469098126, -6.2018135062191835], [106.8744877881085, -6.202069491261781], [106.87440195742002, -6.20313609426807]]]}, "properties": {"landcover": 2, "class": "vegetation", "polygon": 8}}, {"type": "Feature", "geometry": {"type": "Polygon", "coordinates": [[[106.80383005287312, -6.216865221233051], [106.8042592063155, -6.218315760033093], [106.80520334388875, -6.218230434332075], [106.80451669838094, -6.2164385914128655]]]}, "properties": {"landcover": 2, "class": "vegetation", "polygon": 9}}, {"type": "Feature", "geometry": {"type": "Polygon", "coordinates": [[[107.0002100785395, -6.146351076308858], [106.99900844890082, -6.151812635720352], [107.00209835368598, -6.154884738233635], [107.00381496745551, -6.15061792439216]]]}, "properties": {"landcover": 3, "class": "flooded vegetation", "polygon": 0}}, {"type": "Feature", "geometry": {"type": "Polygon", "coordinates": [[[107.0580599625727, -6.150105904429673], [107.05874660808051, -6.154884738233635], [107.06166485148871, -6.154884738233635], [107.06149319011176, -6.15061792439216], [107.05685833293403, -6.149423210379412]]]}, "properties": {"landcover": 3, "class": "flooded vegetation", "polygon": 1}}, {"type": "Feature", "geometry": {"type": "Polygon", "coordinates": [[[107.0994303544184, -6.157274139019306], [107.09840038615668, -6.160516880033645], [107.10149029094184, -6.162052908337495], [107.10355022746528, -6.159663529055299]]]}, "properties": {"landcover": 3, "class": "flooded vegetation", "polygon": 2}}, {"type": "Feature", "geometry": {"type": "Polygon", "coordinates": [[[106.98012569743598, -6.135257111208284], [106.97875240642036, -6.139694724980212], [106.9814989884516, -6.141572165832513], [106.98441723185981, -6.137646600139478]]]}, "properties": {"landcover": 3, "class": "flooded vegetation", "polygon": 3}}, {"type": "Feature", "geometry": {"type": "Polygon", "coordinates": [[[107.04261043864692, -6.122285413062761], [107.04278210002387, -6.12808858016013], [107.04655865031684, -6.127576538542023], [107.04518535930121, -6.123650869818673]]]}, "properties": {"landcover": 3, "class": "flooded vegetation", "polygon": 4}}, {"type": "Feature", "geometry": {"type": "Polygon", "coordinates": [[[107.03385570842231, -6.133891684152227], [107.03213909465278, -6.139353371386932], [107.03711727458442, -6.138499986446712]]]}, "properties": {"landcover": 3, "class": "flooded vegetation", "polygon": 5}}, {"type": "Feature", "geometry": {"type": "Polygon", "coordinates": [[[107.07299450236762, -6.148057819649705], [107.07659939128364, -6.1519833085480675], [107.07797268229926, -6.149423210379412], [107.07436779338325, -6.147545797222403]]]}, "properties": {"landcover": 3, "class": "flooded vegetation", "polygon": 6}}, {"type": "Feature", "geometry": {"type": "Polygon", "coordinates": [[[107.11127498942817, -6.14720444866375], [107.11419323283637, -6.1519833085480675], [107.11625316935981, -6.148228493682609], [107.11247661906684, -6.145156352712578]]]}, "properties": {"landcover": 3, "class": "flooded vegetation", "polygon": 7}}, {"type": "Feature", "geometry": {"type": "Polygon", "coordinates": [[[107.11384991008246, -6.165807625472587], [107.11625316935981, -6.169391648850783], [107.11831310588325, -6.165978293801816], [107.1159098466059, -6.162906255474201]]]}, "properties": {"landcover": 3, "class": "flooded vegetation", "polygon": 8}}, {"type": "Feature", "geometry": {"type": "Polygon", "coordinates": [[[107.07471111613715, -6.173487645894062], [107.07831600505317, -6.177754275800651], [107.07814434367621, -6.173658311750333]]]}, "properties": {"landcover": 3, "class": "flooded vegetation", "polygon": 9}}, {"type": "Feature", "geometry": {"type": "Polygon", "coordinates": [[[106.77294323545246, -6.206817239087071], [106.77122662168293, -6.211595560668285], [106.77895138364582, -6.211254253421895], [106.77749226194172, -6.209291732461352]]]}, "properties": {"landcover": 4, "class": "urban", "polygon": 0}}, {"type": "Feature", "geometry": {"type": "Polygon", "coordinates": [[[106.70496533017902, -6.213899378792872], [106.70625279050617, -6.21782437903266], [106.70985767942219, -6.216715142803224], [106.70668194394855, -6.213387420081126]]]}, "properties": {"landcover": 4, "class": "urban", "polygon": 1}}, {"type": "Feature", "geometry": {"type": "Polygon", "coordinates": [[[106.7270238171175, -6.199393689247103], [106.7295987377718, -6.2016122323350755], [106.73165867429523, -6.199393689247103], [106.72942707639484, -6.197431124121582]]]}, "properties": {"landcover": 4, "class": "urban", "polygon": 2}}, {"type": "Feature", "geometry": {"type": "Polygon", "coordinates": [[[106.71758244138508, -6.196492503437448], [106.72067234617023, -6.199479017999978], [106.72341892820148, -6.196748491062339], [106.72092983823566, -6.195212563450485]]]}, "properties": {"landcover": 4, "class": "urban", "polygon": 3}}, {"type": "Feature", "geometry": {"type": "Polygon", "coordinates": [[[106.71123097043781, -6.180877023694119], [106.71097347837238, -6.183778295263868], [106.71680996518879, -6.183095644561565], [106.712346769388, -6.181559677259811]]]}, "properties": {"landcover": 4, "class": "urban", "polygon": 4}}, {"type": "Feature", "geometry": {"type": "Polygon", "coordinates": [[[106.7259080181673, -6.215093947183223], [106.72522137265949, -6.218080356291827], [106.7310578594759, -6.218848287321698], [106.73097202878742, -6.215947208658648]]]}, "properties": {"landcover": 4, "class": "urban", "polygon": 5}}, {"type": "Feature", "geometry": {"type": "Polygon", "coordinates": [[[106.76890919309406, -6.198796387590491], [106.7698533306673, -6.202209530802469], [106.77320072751789, -6.202721500378797], [106.77328655820637, -6.199905661557284]]]}, "properties": {"landcover": 4, "class": "urban", "polygon": 6}}, {"type": "Feature", "geometry": {"type": "Polygon", "coordinates": [[[106.78530285459308, -6.200246976154637], [106.78873608213215, -6.198711058727187], [106.78719112973957, -6.19512723400766], [106.78298542600422, -6.19487124559641]]]}, "properties": {"landcover": 4, "class": "urban", "polygon": 7}}, {"type": "Feature", "geometry": {"type": "Polygon", "coordinates": [[[106.78298542600422, -6.204684045815094], [106.78212711911945, -6.208865096502073], [106.78701946836262, -6.210315657353372], [106.78736279111652, -6.2063906011235845]]]}, "properties": {"landcover": 4, "class": "urban", "polygon": 8}}, {"type": "Feature", "geometry": {"type": "Polygon", "coordinates": [[[106.78075382810383, -6.214752642205573], [106.78023884397297, -6.217312424140544], [106.78444454770832, -6.217397749990501], [106.78435871701984, -6.214155357961964]]]}, "properties": {"landcover": 4, "class": "urban", "polygon": 9}}, {"type": "Feature", "geometry": {"type": "Polygon", "coordinates": [[[106.70307705503254, -6.200844276168492], [106.70239040952472, -6.200246976154637], [106.701360441263, -6.201185590158384]]]}, "properties": {"landcover": 5, "class": "flooded urban", "polygon": 0}}, {"type": "Feature", "geometry": {"type": "Polygon", "coordinates": [[[106.70350620847492, -6.205878635111372], [106.70350620847492, -6.205025357318938], [106.70239040952472, -6.205963962814613]]]}, "properties": {"landcover": 5, "class": "flooded urban", "polygon": 1}}, {"type": "Feature", "geometry": {"type": "Polygon", "coordinates": [[[106.7178399334505, -6.19094607441476], [106.7178399334505, -6.189410129924163], [106.71689579587726, -6.1897514513080045], [106.71706745725422, -6.191031404533288]]]}, "properties": {"landcover": 5, "class": "flooded urban", "polygon": 2}}, {"type": "Feature", "geometry": {"type": "Polygon", "coordinates": [[[106.7288262615755, -6.189068808319818], [106.7284829388216, -6.187703519697595], [106.72762463193683, -6.189410129924163]]]}, "properties": {"landcover": 5, "class": "flooded urban", "polygon": 3}}, {"type": "Feature", "geometry": {"type": "Polygon", "coordinates": [[[106.74521992307453, -6.209462386748279], [106.74479076963215, -6.210827619052727], [106.74556324582844, -6.211083599715712], [106.7460782299593, -6.209633040979915]]]}, "properties": {"landcover": 5, "class": "flooded urban", "polygon": 4}}, {"type": "Feature", "geometry": {"type": "Polygon", "coordinates": [[[106.75208637815265, -6.178317064978601], [106.75277302366047, -6.180109037379833], [106.75440380674152, -6.179511713920316], [106.75311634641437, -6.178231732808143]]]}, "properties": {"landcover": 5, "class": "flooded urban", "polygon": 5}}, {"type": "Feature", "geometry": {"type": "Polygon", "coordinates": [[[106.5635652885331, -6.265320165660066], [106.56262115095986, -6.266770570296272], [106.56373694991005, -6.267538429942028], [106.56459525679482, -6.267111841389463]]]}, "properties": {"landcover": 5, "class": "flooded urban", "polygon": 6}}, {"type": "Feature", "geometry": {"type": "Polygon", "coordinates": [[[106.58708289717568, -6.274534432416669], [106.58897117232216, -6.274449115878829], [106.58931449507607, -6.273595949732198], [106.58716872786415, -6.273937216358453]]]}, "properties": {"landcover": 5, "class": "flooded urban", "polygon": 7}}, {"type": "Feature", "geometry": {"type": "Polygon", "coordinates": [[[106.58373550032509, -6.276411392714891], [106.58287719344032, -6.275899495122339], [106.58313468550575, -6.277093922055852]]]}, "properties": {"landcover": 5, "class": "flooded urban", "polygon": 8}}, {"type": "Feature", "geometry": {"type": "Polygon", "coordinates": [[[106.56150535200966, -6.267879700532921], [106.56279281233681, -6.269415415428958], [106.56322196577919, -6.2683916060006535]]]}, "properties": {"landcover": 5, "class": "flooded urban", "polygon": 9}}]}