{"type": "FeatureCollection", "name": "West Papua mangrove training polygons (GEE101 Mangrove Lab 4, R. N. Hendrawan)", "features": [{"type": "Feature", "geometry": {"type": "Polygon", "coordinates": [[[133.72761088150943, -3.642905447339241], [133.72763233918155, -3.642412917951233], [133.7288125111481, -3.640999571254626], [133.7293704106232, -3.6407211845225427], [133.72889834183658, -3.6391365199468972], [133.72842627304996, -3.638429844304918], [133.72831898468937, -3.6375090236974357], [133.72793274659122, -3.6360528403514794], [133.72546511429752, -3.6359243534727312], [133.7252290799042, -3.639050862322837], [133.72507887619938, -3.64039996895549], [133.72527199524845, -3.6414278583667072], [133.7270686401537, -3.6439489603523576], [133.7279698623827, -3.6435849173398185]]]}, "properties": {"landcover": 0, "class": "mangrove"}}, {"type": "Feature", "geometry": {"type": "Polygon", "coordinates": [[[133.72878677785656, -3.6436958586150685], [133.72905499875804, -3.643417472716888], [133.72952706754467, -3.642530644087837], [133.72972018659374, -3.6424664011127232], [133.73004205167553, -3.6417168993975135], [133.73117930829784, -3.641224369359184], [133.7320376151826, -3.6413742698341656], [133.7323594802644, -3.6413100267765093], [133.73240239560863, -3.641010225780212], [133.73087890088817, -3.638847372778258], [133.73019740911545, -3.638038768109228], [133.7293605599028, -3.637931695947439], [133.72921035619797, -3.639002416992754], [133.7297508491686, -3.6397517496230734], [133.72968647615224, -3.6409509546853243], [133.72803423539906, -3.6426641020035966]]]}, "properties": {"landcover": 0, "class": "mangrove"}}, {"type": "Feature", "geometry": {"type": "Polygon", "coordinates": [[[134.75728926775662, -3.9522304874112746], [134.75874838946072, -3.9514598479119623], [134.7596066963455, -3.951588287878241], [134.7615378868362, -3.9529154996983666], [134.76368365404812, -3.950988901198792], [134.76484236834256, -3.9481632153063737], [134.76441321490017, -3.946793182320208], [134.76200995562283, -3.9446096875771985], [134.75664553759304, -3.9446525012547635], [134.75608763811795, -3.9451234515624565], [134.7579329979202, -3.9466219280380015], [134.7584050667068, -3.9482916557829157], [134.7562592994949, -3.951802354444509]]]}, "properties": {"landcover": 0, "class": "mangrove"}}, {"type": "Feature", "geometry": {"type": "Polygon", "coordinates": [[[134.7370503767019, -3.9610447341664337], [134.73823054866844, -3.9611731726467063], [134.7388528211599, -3.9617297391641393], [134.7390888555532, -3.9640202205057062], [134.7390888555532, -3.965304599790072], [134.74056943492943, -3.9659681949717354], [134.74164231853538, -3.965176161951431], [134.74192126827293, -3.9639988141673843], [134.74320872860008, -3.9633352174048704], [134.7449253423696, -3.963956001489112], [134.7479294164663, -3.9628856838116016], [134.74775775508934, -3.961387236736175], [134.74685653286033, -3.9613069413596023], [134.74563344554954, -3.9611356900758325], [134.74327310161644, -3.9607503745577644], [134.74224313335472, -3.9600867751894215], [134.74213584499412, -3.9588023878037895], [134.74202855663353, -3.9580317544159764], [134.74114879207664, -3.957603624446171], [134.73994716243797, -3.957239713797823], [134.73793014125877, -3.959037858973679], [134.7362779005056, -3.961178502900105]]]}, "properties": {"landcover": 0, "class": "mangrove"}}, {"type": "Feature", "geometry": {"type": "Polygon", "coordinates": [[[134.71925836440542, -3.958916690744224], [134.72106080886343, -3.9593662264938074], [134.7224770152233, -3.9596445104069424], [134.72318511840322, -3.9588524713314976], [134.72387176391103, -3.957289797420045], [134.72380739089468, -3.955812746765856], [134.723506983485, -3.9555130550074145], [134.718464430537, -3.9559625926044295], [134.71694093581655, -3.95619806458171], [134.71389394637563, -3.9571613583372733], [134.71372228499868, -3.958360122335137], [134.7150955760143, -3.9591093489525178], [134.7169838511608, -3.9586170001089003]]]}, "properties": {"landcover": 0, "class": "mangrove"}}, {"type": "Feature", "geometry": {"type": "Polygon", "coordinates": [[[134.6683717875788, -4.027836367960403], [134.67661153367254, -4.028735363711964], [134.6799160151789, -4.028564126502542], [134.67905770829412, -4.026980180606916], [134.67661153367254, -4.0253962316285685], [134.6760107188532, -4.025267803197958], [134.67592488816473, -4.024325994087868], [134.67764150193426, -4.021072463328964], [134.67352162888739, -4.021586179575648], [134.67227708390448, -4.021714608586723], [134.67111836961004, -4.023255755140727], [134.6698309092829, -4.023212945553585], [134.66897260239813, -4.023212945553585]]]}, "properties": {"landcover": 0, "class": "mangrove"}}, {"type": "Feature", "geometry": {"type": "Polygon", "coordinates": [[[134.67330225314197, -4.019950828891363], [134.67373140658435, -4.02020768740861], [134.67497595156726, -4.020892643058942], [134.6766925653368, -4.020293306896383], [134.67789419497547, -4.02055016530572], [134.67853792513904, -4.021620407806737], [134.6811986764818, -4.020807023634132], [134.6793962320238, -4.016868520373756], [134.67712171877918, -4.0180243874328845], [134.67561968173084, -4.016354801155176], [134.67583425845203, -4.014599591385133], [134.6768213113695, -4.0118169340166085], [134.67630632723865, -4.01147445245452], [134.67463262881336, -4.012373466248781], [134.67252977694568, -4.0147280214962855], [134.67240103091297, -4.016440421047412], [134.67313059176502, -4.019651160518955]]]}, "properties": {"landcover": 0, "class": "mangrove"}}, {"type": "Feature", "geometry": {"type": "Polygon", "coordinates": [[[134.71663110684756, -4.136459832188471], [134.71843355130557, -4.134918902768721], [134.7201501650751, -4.13209385771867], [134.7271024508417, -4.133292362908706], [134.72959154080752, -4.131237781474018], [134.73044984769228, -4.129011978914675], [134.72847574185732, -4.125245221903597], [134.7259866518915, -4.123276228174927], [134.7216092867792, -4.123019402546308], [134.71594446133975, -4.125245221903597], [134.7150003237665, -4.128669547197578], [134.7150003237665, -4.130724135283759], [134.71697442960146, -4.133377970352951]]]}, "properties": {"landcover": 0, "class": "mangrove"}}, {"type": "Feature", "geometry": {"type": "Polygon", "coordinates": [[[134.70735559867967, -4.130118428404641], [134.7098446886455, -4.130118428404641], [134.71181879448045, -4.12703654192897], [134.7138787310039, -4.123697818082541], [134.715337852708, -4.120701515508307], [134.71224794792283, -4.1184756834306295], [134.7098446886455, -4.118732510526643], [134.7083855669414, -4.122584907016144], [134.70658312248338, -4.124553902457722], [134.70675478386033, -4.128663094615577]]]}, "properties": {"landcover": 0, "class": "mangrove"}}, {"type": "Feature", "geometry": {"type": "Polygon", "coordinates": [[[134.72212134956249, -4.11098509226835], [134.72379504798778, -4.110728262674037], [134.72933112739452, -4.110300213166324], [134.73027526496776, -4.110043383351381], [134.7308760797871, -4.11218362928098], [134.73443805335887, -4.111669970781961], [134.733923069228, -4.109829358442403], [134.73237811683543, -4.106618977916061], [134.72800075172313, -4.105934095065268], [134.72212134956249, -4.106276536564136], [134.72173511146434, -4.11111350703447]]]}, "properties": {"landcover": 0, "class": "mangrove"}}, {"type": "Feature", "geometry": {"type": "Polygon", "coordinates": [[[134.8498942805329, -3.9743346939137463], [134.85208296308906, -3.9758331174976727], [134.85131048689277, -3.9781877776263084], [134.8539283228913, -3.9804568073832494], [134.8562886668244, -3.9817839728337123], [134.85791944990547, -3.979900253493178], [134.8592927409211, -3.976603734280344], [134.85598825941474, -3.9755762450766943], [134.85500120649726, -3.973949384552062], [134.8519113017121, -3.9726222064840715]]]}, "properties": {"landcover": 0, "class": "mangrove"}}, {"type": "Feature", "geometry": {"type": "Polygon", "coordinates": [[[134.83081373065178, -3.975963749353986], [134.83102830737297, -3.9802449439037133], [134.8321870216674, -3.9817433567388276], [134.8340752968139, -3.980030884704666], [134.83248742907708, -3.9784896568291197], [134.83201536029046, -3.9780187255141857]]]}, "properties": {"landcover": 0, "class": "mangrove"}}, {"type": "Feature", "geometry": {"type": "Polygon", "coordinates": [[[134.75605286474382, -3.917648946081038], [134.76043022985613, -3.9167926443804393], [134.7603014838234, -3.914694701511216], [134.76227558965837, -3.9113122927556905], [134.76373471136247, -3.9102419073937753], [134.7617606055275, -3.910199091950863], [134.7603014838234, -3.9105844308583233], [134.75935734625017, -3.9108841387749624], [134.75824154729997, -3.914523440636712], [134.75622452612077, -3.916364493201551], [134.75600994939958, -3.9180770966026968], [134.75605286474382, -3.91730642550596]]]}, "properties": {"landcover": 0, "class": "mangrove"}}, {"type": "Feature", "geometry": {"type": "Polygon", "coordinates": [[[134.7644213568703, -3.915807896341537], [134.77090157385027, -3.916107602389079], [134.77180279607927, -3.9148231471440984], [134.7722748648659, -3.9112694773674583], [134.77008618230974, -3.9109697695886005], [134.76854122991716, -3.9108841387749624], [134.76815499181902, -3.9121686000608458], [134.76661003942644, -3.912511122737863], [134.76536549444353, -3.9129820911900994]]]}, "properties": {"landcover": 0, "class": "mangrove"}}, {"type": "Feature", "geometry": {"type": "Polygon", "coordinates": [[[134.73501319842597, -3.912514071753113], [134.73900432544013, -3.9150401721614823], [134.7396480556037, -3.9150829873569726], [134.73969097094795, -3.913456008389464], [134.7387468333747, -3.9119574723338086], [134.73823184924385, -3.9103733027321765], [134.73814601855537, -3.907419032505151], [134.7375022883918, -3.9050641719731995], [134.73698730426094, -3.9030090155643893], [134.7340261455085, -3.9030518313742104], [134.7332536693122, -3.9034799893524], [134.73389739947578, -3.9044219361358774], [134.73406906085273, -3.9070765077476186], [134.73355407672187, -3.908617868055012], [134.73355407672187, -3.909474178112785]]]}, "properties": {"landcover": 0, "class": "mangrove"}}, {"type": "Feature", "geometry": {"type": "Polygon", "coordinates": [[[133.4484350383427, -3.5612268480298526], [133.4601080119755, -3.5438366994717443], [133.4589922130253, -3.5409240317496438], [133.4576189220097, -3.540410030612077], [133.45676061512492, -3.543322699951591], [133.4520399272587, -3.5483770161593196], [133.45083829762004, -3.553602636049744], [133.4494650066044, -3.5562582676049574], [133.4440576732304, -3.5549732855492224], [133.44371435047648, -3.5585712307914736]]]}, "properties": {"landcover": 0, "class": "mangrove"}}, {"type": "Feature", "geometry": {"type": "Polygon", "coordinates": [[[133.42508999326375, -3.6340203520646637], [133.42680660703328, -3.621257204078535], [133.4238025329366, -3.6162032903447483], [133.41693607785848, -3.616717248961136], [133.4165069244161, -3.6216855005563695], [133.4231158874288, -3.63067967974343]]]}, "properties": {"landcover": 0, "class": "mangrove"}}, {"type": "Feature", "geometry": {"type": "Polygon", "coordinates": [[[133.2845483088039, -3.8478601303241073], [133.28969815011249, -3.8428075202194067], [133.28806736703143, -3.839895833004174], [133.28205921883807, -3.8398101949945174], [133.28240254159198, -3.841351677853695]]]}, "properties": {"landcover": 0, "class": "mangrove"}}, {"type": "Feature", "geometry": {"type": "Polygon", "coordinates": [[[133.26927044625506, -3.8561668987321425], [133.2731328272365, -3.855567443933736], [133.27347614999042, -3.8514568853615754], [133.2716737055324, -3.849829783774218], [133.27047207589374, -3.8524845268667227]]]}, "properties": {"landcover": 0, "class": "mangrove"}}, {"type": "Feature", "geometry": {"type": "Polygon", "coordinates": [[[133.2547827224406, -3.764420239558378], [133.25821594997967, -3.7635637841088623], [133.25976090237225, -3.7603092457219027], [133.2599325637492, -3.7587676180340304], [133.258816764799, -3.757054695184765], [133.25658516689862, -3.7573116338265717], [133.2542248229655, -3.7589389101339346]]]}, "properties": {"landcover": 0, "class": "mangrove"}}, {"type": "Feature", "geometry": {"type": "Polygon", "coordinates": [[[133.42849429986086, -3.379854528615543], [133.43450244805422, -3.3742852218873556], [133.43351539513674, -3.3704723704103396], [133.43051132104006, -3.3704723704103396], [133.42892345330324, -3.3751420403859407], [133.4281080617627, -3.379169077204011]]]}, "properties": {"landcover": 0, "class": "mangrove"}}, {"type": "Feature", "geometry": {"type": "Polygon", "coordinates": [[[133.69430205086778, -3.2163758084641594], [133.69204899529527, -3.2161615697283725], [133.69031092385362, -3.2172619238234295], [133.6908688233287, -3.218954406781827], [133.69217774132798, -3.2204540728765116], [133.6938943550975, -3.222189398029556], [133.6946668312938, -3.2203683777305954], [133.69295021752427, -3.2186116256501753], [133.69408747414658, -3.2180331822290396], [133.69685551384995, -3.215826524681602]]]}, "properties": {"landcover": 0, "class": "mangrove"}}, {"type": "Feature", "geometry": {"type": "Polygon", "coordinates": [[[133.89885917205604, -3.124486726390523], [133.8989450027445, -3.1274006276884028], [133.89997497100623, -3.1290718321326176], [133.90267863769324, -3.13018596694842], [133.9058972885111, -3.130871587784678], [133.9085580398539, -3.1291146834935972], [133.9054252197245, -3.125943678051102], [133.90327945251258, -3.123329733925236], [133.89976039428504, -3.1236725466404702]]]}, "properties": {"landcover": 0, "class": "mangrove"}}, {"type": "Feature", "geometry": {"type": "Polygon", "coordinates": [[[133.77723074937902, -3.452164594149315], [133.78272391344152, -3.4713555868573267], [133.80606986070714, -3.4713555868573267], [133.79645682359777, -3.4405127306811205]]]}, "properties": {"landcover": 1, "class": "forest"}}, {"type": "Feature", "geometry": {"type": "Polygon", "coordinates": [[[134.36774588609777, -3.4199502714506953], [134.40001822496495, -3.4569623787636936], [134.45357657457433, -3.431602385996914], [134.4130644896134, -3.406927152336868], [134.39383841539464, -3.401443681003064]]]}, "properties": {"landcover": 1, "class": "forest"}}, {"type": "Feature", "geometry": {"type": "Polygon", "coordinates": [[[134.2647490599259, -3.2862836547428635], [134.27848197008214, -3.3568893245279443], [134.34577322984777, -3.3404379700583067], [134.32998038316808, -3.2862836547428635]]]}, "properties": {"landcover": 1, "class": "forest"}}, {"type": "Feature", "geometry": {"type": "Polygon", "coordinates": [[[133.1945390226115, -3.1974222158525563], [133.19110579507245, -3.267348626757927], [133.24260420815838, -3.267348626757927], [133.24741072671307, -3.21730374384439]]]}, "properties": {"landcover": 1, "class": "forest"}}, {"type": "Feature", "geometry": {"type": "Polygon", "coordinates": [[[133.232991171049, -3.1384609448757246], [133.21788496987713, -3.1823394201605657], [133.2652635099162, -3.200164518542704], [133.27350325600995, -3.1322903859236884]]]}, "properties": {"landcover": 1, "class": "forest"}}, {"type": "Feature", "geometry": {"type": "Polygon", "coordinates": [[[132.87671425069837, -3.778247106250051], [132.87671425069837, -3.837168263672729], [132.95293190206556, -3.8255213784267115], [132.9446921559718, -3.750840549495129], [132.878087541714, -3.7254887191676413]]]}, "properties": {"landcover": 1, "class": "forest"}}, {"type": "Feature", "geometry": {"type": "Polygon", "coordinates": [[[132.88838722433118, -3.8741631964924155], [132.89800026144056, -3.938557915584651], [132.95911171163587, -3.929652557997806], [132.965978166714, -3.865257156214139]]]}, "properties": {"landcover": 1, "class": "forest"}}, {"type": "Feature", "geometry": {"type": "Polygon", "coordinates": [[[132.97421791280775, -3.8015419990757646], [132.99619056905775, -3.8097635759031983], [132.998937151089, -3.734396202500548]]]}, "properties": {"landcover": 1, "class": "forest"}}, {"type": "Feature", "geometry": {"type": "Polygon", "coordinates": [[[133.18845131124525, -3.7803025631854914], [133.1582389089015, -3.80496766562356], [133.1699118825343, -3.82894694936618], [133.2241568776515, -3.8056527972989036]]]}, "properties": {"landcover": 1, "class": "forest"}}, {"type": "Feature", "geometry": {"type": "Polygon", "coordinates": [[[132.8835807057765, -3.9519157732179293], [132.88255073751478, -3.9817132946840137], [132.90829994405775, -3.9806858118534194], [132.90692665304212, -3.9450656166453935]]]}, "properties": {"landcover": 1, "class": "forest"}}, {"type": "Feature", "geometry": {"type": "Polygon", "coordinates": [[[134.1231212883343, -2.7195651421558265], [134.17667963794366, -2.7840353886172755], [134.27006342700616, -2.8526168828724408], [134.2769298820843, -2.8128401081042917], [134.2288646965374, -2.7538582606233604], [134.2274914055218, -2.7181933970554355], [134.18217280200616, -2.67566852945968], [134.13822748950616, -2.679783904066364]]]}, "properties": {"landcover": 1, "class": "forest"}}, {"type": "Feature", "geometry": {"type": "Polygon", "coordinates": [[[133.5037670402874, -2.7943228696530316], [133.49896052173273, -2.855360058218704], [133.5751781730999, -2.8450731169448837], [133.56556513599054, -2.7936370403851405]]]}, "properties": {"landcover": 1, "class": "forest"}}, {"type": "Feature", "geometry": {"type": "Polygon", "coordinates": [[[133.4124180180764, -1.8128049097815173], [133.3732792241311, -1.9150609433780048], [133.3677860600686, -1.959667387826799], [133.44675029346703, -1.9603536316069035], [133.4666630131936, -1.908198309721952], [133.46322978565453, -1.8354527286500717]]]}, "properties": {"landcover": 1, "class": "forest"}}, {"type": "Feature", "geometry": {"type": "Polygon", "coordinates": [[[133.78457988331078, -1.786725252438162], [133.74406779834985, -1.8979043079206088], [133.7468143803811, -1.9150609433780048], [133.78663981983422, -1.9404524481629781], [133.80998576709985, -1.9061395142804722], [133.84363139698266, -1.87182589649571], [133.84431804249047, -1.8121186077990814]]]}, "properties": {"landcover": 1, "class": "forest"}}, {"type": "Feature", "geometry": {"type": "Polygon", "coordinates": [[[133.25725870652258, -1.7439726909283175], [133.26000528855383, -1.8057411358806428], [133.35064249558508, -1.8057411358806428], [133.36437540574133, -1.7124013648902918], [133.2696183256632, -1.7288734265791017]]]}, "properties": {"landcover": 1, "class": "forest"}}, {"type": "Feature", "geometry": {"type": "Polygon", "coordinates": [[[133.8948143552884, -3.097394237125172], [133.8977325986966, -3.1099071370184976], [133.90442739239776, -3.110935587949061], [133.9061440061673, -3.1064789600080047], [133.89927755108917, -3.0971371211912704]]]}, "properties": {"landcover": 2, "class": "water"}}, {"type": "Feature", "geometry": {"type": "Polygon", "coordinates": [[[133.8131035398587, -3.0976513529966194], [133.81653676739776, -3.099536867479046], [133.82649312726105, -3.0781103691873826], [133.82494817486847, -3.0700538942024203], [133.81842504254425, -3.0715966281631246]]]}, "properties": {"landcover": 2, "class": "water"}}, {"type": "Feature", "geometry": {"type": "Polygon", "coordinates": [[[133.80676077050663, -3.317003504512844], [133.8050441567371, -3.329856455165312], [133.81242559594608, -3.335511700346443], [133.8182620827625, -3.33808225558685], [133.8222102944324, -3.331227426678421], [133.81809042138553, -3.3257435291771595], [133.8112239663074, -3.3212878399963963], [133.80590246362186, -3.3154611391921804]]]}, "properties": {"landcover": 2, "class": "water"}}, {"type": "Feature", "geometry": {"type": "Polygon", "coordinates": [[[133.79508869191827, -3.604353674207319], [133.79440204641045, -3.623541515627312], [133.80882160207452, -3.6708240977195543], [133.82736103078545, -3.724270957220779], [133.85894672414483, -3.716733775082721], [133.8843526079339, -3.6927514040373612], [133.86581317922295, -3.6653421868922345], [133.82118122121514, -3.6050389612408003]]]}, "properties": {"landcover": 2, "class": "water"}}, {"type": "Feature", "geometry": {"type": "Polygon", "coordinates": [[[134.08073322316827, -3.8893873421329346], [134.14527790090264, -3.849652692734466], [134.15626422902764, -3.8277293325597066], [134.10545246144952, -3.8016946136246426], [134.03404132863702, -3.863354506406396]]]}, "properties": {"landcover": 2, "class": "water"}}, {"type": "Feature", "geometry": {"type": "Polygon", "coordinates": [[[133.6308529797417, -2.3456987291958162], [133.56218842896044, -2.411559898050603], [133.67205171021044, -2.4335129168002254], [133.76406220825731, -2.4019553407642324], [133.78191499146044, -2.3553036782145296], [133.68303803833544, -2.2935564334339187]]]}, "properties": {"landcover": 2, "class": "water"}}, {"type": "Feature", "geometry": {"type": "Polygon", "coordinates": [[[133.7010146257035, -3.132710629331609], [133.74221335617224, -3.1546502199441955], [133.75251303878943, -3.0956865291946323], [133.7071944352738, -3.0730600522455473], [133.66668235031287, -3.1443660942995604]]]}, "properties": {"landcover": 2, "class": "water"}}, {"type": "Feature", "geometry": {"type": "Polygon", "coordinates": [[[133.78684531418006, -3.0518044398771216], [133.79920493332068, -3.071688735158938], [133.84864340988318, -2.9873493797632347], [133.82461081710974, -2.9756922071270657]]]}, "properties": {"landcover": 2, "class": "water"}}, {"type": "Feature", "geometry": {"type": "Polygon", "coordinates": [[[132.74370307615945, -2.7546751986334708], [132.97990913084695, -2.4528634434586176], [132.73271674803445, -2.354073485334202], [132.63383979490945, -2.617497015524342]]]}, "properties": {"landcover": 2, "class": "water"}}, {"type": "Feature", "geometry": {"type": "Polygon", "coordinates": [[[134.21037788084695, -2.271743158377878], [134.32024116209695, -2.485791822633493], [134.45207709959695, -2.430910739632138], [134.40813178709695, -2.2552765243488624], [134.24333686522195, -2.2333207226243257]]]}, "properties": {"landcover": 2, "class": "water"}}, {"type": "Feature", "geometry": {"type": "Polygon", "coordinates": [[[134.7709598201233, -3.9609421131445357], [134.7735347407776, -3.964195882235112], [134.7830619471985, -3.9654802612465474], [134.7911300319153, -3.967192763490356], [134.79164501604615, -3.9650521351311294], [134.77962871965943, -3.9638533808283984], [134.77121731218872, -3.961627118227214]]]}, "properties": {"landcover": 2, "class": "water"}}, {"type": "Feature", "geometry": {"type": "Polygon", "coordinates": [[[134.67445426196505, -3.9656723203418354], [134.6639829179709, -3.978858492910235], [134.67187934131076, -3.980228472772996], [134.67934661120822, -3.977488510769027], [134.68486807156566, -3.969249437988564], [134.69448110867503, -3.9668519398218085], [134.71078893948558, -3.9585462674033125], [134.7191145162678, -3.9553781023546533], [134.7191145162678, -3.954693092102506], [134.71499464322093, -3.955121223576459], [134.70074674893382, -3.9611150409762845], [134.68924543667796, -3.964968186381543], [134.67602751065257, -3.9661669390676115]]]}, "properties": {"landcover": 2, "class": "water"}}, {"type": "Feature", "geometry": {"type": "Polygon", "coordinates": [[[134.66808680277578, -4.069956741854538], [134.70619562845937, -4.064648641788566], [134.70894221049062, -4.056087116452829], [134.67924479227773, -4.054203568697916], [134.6661985276293, -4.063450033709903], [134.66791514139882, -4.071326568451381]]]}, "properties": {"landcover": 2, "class": "water"}}, {"type": "Feature", "geometry": {"type": "Polygon", "coordinates": [[[133.7810089179783, -3.277508895181293], [133.7823392936497, -3.265683564215303], [133.78186722486308, -3.264269656616912], [133.78096600263407, -3.2641839651833515], [133.7799789497166, -3.267911535784318], [133.77924938886454, -3.277637430620522]]]}, "properties": {"landcover": 2, "class": "water"}}, {"type": "Feature", "geometry": {"type": "Polygon", "coordinates": [[[133.66181943995176, -2.7352359985143755], [133.66817091089902, -2.728205879882919], [133.67606733423887, -2.718775168402991], [133.6839637575787, -2.7054005785134074], [133.68087385279355, -2.6884249251400014], [133.6697158632916, -2.6786509568768646], [133.66868589502988, -2.6736782062239093], [133.66181943995176, -2.6731637825916112], [133.6619911013287, -2.6759073728043257], [133.66817091089902, -2.685166944403901], [133.6781272707623, -2.6961411605858556], [133.67692564112363, -2.7069438079667085], [133.6671409426373, -2.7227189294585257], [133.66181943995176, -2.7338642712824037]]]}, "properties": {"landcover": 2, "class": "water"}}, {"type": "Feature", "geometry": {"type": "Polygon", "coordinates": [[[133.74195401471889, -2.664922764789432], [133.74349896711146, -2.6684380122289593], [133.74821965497767, -2.672553411092181], [133.75517194074428, -2.67426815654739], [133.75886266034877, -2.673667995910646], [133.76221005719935, -2.6700670259275228], [133.76710240644252, -2.6647512890476848], [133.77353970807826, -2.6632080062973333], [133.77688710492885, -2.662779316301261], [133.7748271684054, -2.660207173193], [133.77096478742396, -2.6602929113830682], [133.76667325300014, -2.662264888109053], [133.7616950730685, -2.6682665369771947], [133.75826184552943, -2.671953249616839], [133.75002209943568, -2.6716960374661713], [133.7448722581271, -2.665951618738219]]]}, "properties": {"landcover": 2, "class": "water"}}, {"type": "Feature", "geometry": {"type": "Polygon", "coordinates": [[[133.3362738258719, -2.678768188604208], [133.34554354022737, -2.681168819396009], [133.3582464821219, -2.6832264991829877], [133.37232271503206, -2.6808258724283154], [133.38193575214143, -2.673281014843708], [133.38777223895784, -2.659220020205715], [133.38983217548127, -2.6420722489467354], [133.38399568866487, -2.648931385955232], [133.37712923358674, -2.669508568647186], [133.36820284198518, -2.678082293227712], [133.3534399635672, -2.679111136148409], [133.33249727557893, -2.6753387078819717]]]}, "properties": {"landcover": 2, "class": "water"}}, {"type": "Feature", "geometry": {"type": "Polygon", "coordinates": [[[133.8689009997839, -3.562837812009901], [133.87018846011105, -3.5649794294860238], [133.87345002627316, -3.566864048739709], [133.87593911623898, -3.563780124313626], [133.8755099627966, -3.563009141591447], [133.8729350421423, -3.5604391945195313], [133.87173341250363, -3.5594112136822016], [133.86975930666867, -3.560610524547525]]]}, "properties": {"landcover": 3, "class": "bareland"}}, {"type": "Feature", "geometry": {"type": "Polygon", "coordinates": [[[133.87688325381222, -3.555641940798989], [133.88083146548215, -3.5577835750102236], [133.88220475649777, -3.556584260464935], [133.88057397341672, -3.552643644547295], [133.87791322207394, -3.551358657456933], [133.87568162417355, -3.5486173456872088], [133.87447999453488, -3.5499023365923925], [133.87250588869992, -3.5525579787969295], [133.8729350421423, -3.554271292293167], [133.87430833315793, -3.552814976024171], [133.87499497866574, -3.551187325709747], [133.87868569827023, -3.5543569578844534]]]}, "properties": {"landcover": 3, "class": "bareland"}}, {"type": "Feature", "geometry": {"type": "Polygon", "coordinates": [[[133.85890172457638, -3.5466041896761085], [133.86040376162472, -3.549688171565667], [133.86074708437863, -3.5517441537718635], [133.86156247591916, -3.55131582452312], [133.86233495211545, -3.551829819597773], [133.8636224124426, -3.552043984127746], [133.8645236346716, -3.550973160981028], [133.86323617434445, -3.5506304973117646], [133.86259244418088, -3.5501165015694487], [133.86242078280392, -3.549259841363241], [133.86353658175412, -3.5488315109622075], [133.86379407381955, -3.5469468548387306], [133.86224912142697, -3.5473323529948466], [133.8616053912634, -3.5475893516762635], [133.86100457644406, -3.5468183554176314], [133.86087583041135, -3.5451906945377853], [133.86018918490353, -3.544419696278966], [133.86010335421506, -3.5461758580442004], [133.8595883700842, -3.5478035171895113]]]}, "properties": {"landcover": 3, "class": "bareland"}}, {"type": "Feature", "geometry": {"type": "Polygon", "coordinates": [[[133.86095993420196, -3.5300357797489794], [133.86263363262725, -3.533076983029032], [133.86344902416778, -3.532819980320358], [133.8650368919046, -3.531149460979429], [133.8664960136087, -3.52973594226644], [133.86632435223174, -3.5278512473032], [133.8650368919046, -3.5274657410443417], [133.8626765479715, -3.527422907005706]]]}, "properties": {"landcover": 3, "class": "bareland"}}, {"type": "Feature", "geometry": {"type": "Polygon", "coordinates": [[[134.32013252839528, -3.576078987321531], [134.32253578767262, -3.5817327650907336], [134.3258831845232, -3.5805334818135286], [134.32708481416188, -3.578648890633098], [134.32562569245778, -3.576164650881347]]]}, "properties": {"landcover": 3, "class": "bareland"}}, {"type": "Feature", "geometry": {"type": "Polygon", "coordinates": [[[134.335753713698, -3.595695733177997], [134.33523872956715, -3.5979229353292332], [134.3368695126482, -3.5993791799465398], [134.3372128354021, -3.6016063730928747], [134.33892944917164, -3.601520711918755], [134.33884361848317, -3.5985225657476656], [134.33695534333668, -3.5962097033882063]]]}, "properties": {"landcover": 3, "class": "bareland"}}, {"type": "Feature", "geometry": {"type": "Polygon", "coordinates": [[[133.1603067703136, -2.8411890406081852], [133.1662290878185, -2.8456467414681823], [133.17000563811146, -2.8485613827113463], [133.17472632597767, -2.8487328319665672], [133.17747290800892, -2.846418264867737], [133.17815955351674, -2.842132017226415], [133.17472632597767, -2.8393888103802687], [133.17034896086537, -2.834759634059443], [133.1669157333263, -2.837331400970437]]]}, "properties": {"landcover": 3, "class": "bareland"}}, {"type": "Feature", "geometry": {"type": "Polygon", "coordinates": [[[133.1336484177283, -2.861432323168847], [133.13828327490603, -2.8691474278093985], [133.14326145483767, -2.866575732040734], [133.14566471411501, -2.8595464007979152], [133.14617969824587, -2.8568032354510486], [133.14034321142947, -2.8578319232244915]]]}, "properties": {"landcover": 3, "class": "bareland"}}, {"type": "Feature", "geometry": {"type": "Polygon", "coordinates": [[[133.0157215580419, -2.9886706532162397], [133.02258801312001, -2.986099231792858], [133.01692318768056, -2.9823278028170845]]]}, "properties": {"landcover": 3, "class": "bareland"}}, {"type": "Feature", "geometry": {"type": "Polygon", "coordinates": [[[133.07769131512197, -2.959013228125867], [133.08369946331533, -2.9650133495125353], [133.08953595013173, -2.962270440912943], [133.08352780193837, -2.9559274387614454]]]}, "properties": {"landcover": 3, "class": "bareland"}}, {"type": "Feature", "geometry": {"type": "Polygon", "coordinates": [[[133.04799389690908, -2.981642087067834], [133.04816555828603, -2.9905563584309713], [133.05589032024892, -2.9907277860170347], [133.05657696575673, -2.9831849469023997], [133.05443119162803, -2.9832706562821505], [133.0526287540868, -2.975470626100758]]]}, "properties": {"landcover": 3, "class": "bareland"}}, {"type": "Feature", "geometry": {"type": "Polygon", "coordinates": [[[135.30595244049104, -3.449324998361904], [135.3064674246219, -3.4610624279104165], [135.3093856680301, -3.460205686142115], [135.3090423452762, -3.4561789894582997], [135.30912817596467, -3.45129552586811]]]}, "properties": {"landcover": 4, "class": "urban"}}, {"type": "Feature", "geometry": {"type": "Polygon", "coordinates": [[[135.32964171051057, -3.4385898487579705], [135.33127249359163, -3.443901756112903], [135.33453405975374, -3.4495563346007914], [135.3379672872928, -3.4497276849392224], [135.33805311798127, -3.4382471440410414], [135.32998503326448, -3.4378187629716854]]]}, "properties": {"landcover": 4, "class": "urban"}}, {"type": "Feature", "geometry": {"type": "Polygon", "coordinates": [[[135.50070227264436, -3.3827273625313277], [135.50482214569124, -3.3880395787930535], [135.51100195526155, -3.387182771689581], [135.51074446319612, -3.3841839408567185], [135.50731123565706, -3.3777578435426845], [135.50370634674104, -3.375101710889872], [135.49821318267854, -3.377586480364978]]]}, "properties": {"landcover": 4, "class": "urban"}}, {"type": "Feature", "geometry": {"type": "Polygon", "coordinates": [[[135.46928824066194, -3.374244892355728], [135.47246397613557, -3.381442144544196], [135.4789871084598, -3.3777578435426845], [135.48688353179963, -3.3727882991140055], [135.49160421966585, -3.370132152879207], [135.48576773284944, -3.3676473643529734], [135.4730647909549, -3.373302391095619]]]}, "properties": {"landcover": 4, "class": "urban"}}, {"type": "Feature", "geometry": {"type": "Polygon", "coordinates": [[[135.5032010986346, -3.357279730061683], [135.509037585451, -3.3622493536412765], [135.51573237915218, -3.3538523887198974], [135.51307163879721, -3.3497395817673237]]]}, "properties": {"landcover": 4, "class": "urban"}}, {"type": "Feature", "geometry": {"type": "Polygon", "coordinates": [[[135.74485601527553, -3.169184091439101], [135.74837507350307, -3.1693983399736423], [135.75515569789272, -3.1693554902702785], [135.75519861323696, -3.1683270968573494], [135.74464143855434, -3.1681556978558345]]]}, "properties": {"landcover": 4, "class": "urban"}}, {"type": "Feature", "geometry": {"type": "Polygon", "coordinates": [[[135.74597181422573, -3.1698268369096514], [135.74618639094692, -3.1742831945191954], [135.74755968196254, -3.174197495515571], [135.74743093592983, -3.1697411375366498]]]}, "properties": {"landcover": 4, "class": "urban"}}, {"type": "Feature", "geometry": {"type": "Polygon", "coordinates": [[[135.7310953609625, -3.181849669027249], [135.73148159906066, -3.1731512476314845], [135.72976498529113, -3.173451194416723], [135.72942166253722, -3.181849669027249]]]}, "properties": {"landcover": 4, "class": "urban"}}, {"type": "Feature", "geometry": {"type": "Polygon", "coordinates": [[[135.72843460961974, -3.1807355895935796], [135.72847752496398, -3.176579205701817], [135.72620301171935, -3.1758079161279538], [135.72598843499816, -3.1803499464321976]]]}, "properties": {"landcover": 4, "class": "urban"}}, {"type": "Feature", "geometry": {"type": "Polygon", "coordinates": [[[133.14578147239118, -2.463696885875019], [133.14921469993024, -2.46245349069607], [133.15337748832135, -2.463868388567222], [133.15492244071393, -2.4597094420578087], [133.14985843009381, -2.45790865707056], [133.14633937186628, -2.4590663048413663]]]}, "properties": {"landcover": 4, "class": "urban"}}, {"type": "Feature", "geometry": {"type": "Polygon", "coordinates": [[[133.13848586387067, -2.4460319905552765], [133.14011664695172, -2.445088712887801], [133.14260573691755, -2.443287908226888], [133.14011664695172, -2.4407153259509444], [133.13711257285505, -2.442344628631042]]]}, "properties": {"landcover": 4, "class": "urban"}}, {"type": "Feature", "geometry": {"type": "Polygon", "coordinates": [[[133.11765046424298, -2.448690314957352], [133.1205687076512, -2.451198567823287], [133.1215772182408, -2.449783656527789], [133.1186804325047, -2.4476612867819147]]]}, "properties": {"landcover": 4, "class": "urban"}}, {"type": "Feature", "geometry": {"type": "Polygon", "coordinates": [[[133.70544484340502, -3.663854144724104], [133.71003678523851, -3.6634258683127325], [133.71106675350023, -3.6626549702557485], [133.7106805154021, -3.6610703443870216], [133.70939305507494, -3.6611559999110894], [133.70836308681322, -3.662141037848887], [133.7075476952727, -3.6618412438086416], [133.70784810268236, -3.6604279276953706], [133.70638898097826, -3.660042477459184], [133.70437195979906, -3.6605564110705595], [133.7055306740935, -3.662226693270528], [133.70591691219164, -3.6629547640234845], [133.70548775874926, -3.6641967657056163]]]}, "properties": {"landcover": 4, "class": "urban"}}, {"type": "Feature", "geometry": {"type": "Polygon", "coordinates": [[[133.76238565373293, -3.6699222072846593], [133.7650464050757, -3.6683804217069027], [133.76744966435305, -3.666324703465728], [133.76766424107424, -3.662984151245], [133.76543264317385, -3.6625558744172806], [133.76285772251956, -3.663969187170944], [133.76221399235598, -3.6666673235008598], [133.76229982304446, -3.669279796950581]]]}, "properties": {"landcover": 4, "class": "urban"}}, {"type": "Feature", "geometry": {"type": "Polygon", "coordinates": [[[132.30161952361027, -2.92439148266587], [132.30282115324894, -2.9307346643245658], [132.30822848662297, -2.9327061864389976], [132.3084859786884, -2.930391790558776], [132.30797099455754, -2.9273059219415343], [132.3047952590839, -2.9219913505167887]]]}, "properties": {"landcover": 4, "class": "urban"}}, {"type": "Feature", "geometry": {"type": "Polygon", "coordinates": [[[132.3120908676044, -2.933734805293115], [132.31423663481633, -2.9351920137163496], [132.31603907927433, -2.935277731799727], [132.31938647612492, -2.9357920401618793], [132.32101725920597, -2.937849271242488], [132.32427882536808, -2.935363449876527], [132.32333468779484, -2.9329633412412353], [132.32024478300968, -2.930906101168079], [132.31827067717472, -2.930477509010067], [132.3143224655048, -2.932020440010663], [132.31226252898136, -2.932277594970555]]]}, "properties": {"landcover": 4, "class": "urban"}}, {"type": "Feature", "geometry": {"type": "Polygon", "coordinates": [[[132.437319376352, -2.702437960948749], [132.4398942970063, -2.702266490469509], [132.4416967414643, -2.7016234759566653], [132.43882141340035, -2.700423181288338], [132.43757686841744, -2.700165975133665], [132.43710479963082, -2.7006375197089683]]]}, "properties": {"landcover": 4, "class": "urban"}}]}